ONEWEB-0283             
1 49001U 21060AL  25193.68293238 -.00000019  00000+0 -82970-4 0  9995
2 49001  87.9054 296.4580 0002209 100.9774 259.1606 13.16594603196265
ONEWEB-0284             
1 49002U 21060AM  25193.52460331  .00000076  00000+0  16439-3 0  9996
2 49002  87.9072 296.4610 0001872  90.9857 269.1488 13.16594910194904
ONEWEB-0285             
1 49075U 21075A   25193.57620336 -.00000385  00000+0 -11048-2 0  9995
2 49075  87.8858  58.1925 0001786  79.6624 280.4706 13.12443657191641
ONEWEB-0286             
1 49076U 21075B   25193.32936535 -.00000039  00000+0 -14347-3 0  9992
2 49076  87.8881  58.2655 0001577  82.3259 277.8048 13.12443691189983
ONEWEB-0287             
1 49077U 21075C   25193.42822811  .00000041  00000+0  72733-4 0  9990
2 49077  87.9054  73.4954 0001416  75.4040 284.7248 13.17647360188882
ONEWEB-0288             
1 49078U 21075D   25193.61012423  .00000429  00000+0  11576-2 0  9998
2 49078  87.8855  58.1786 0001701  76.7952 283.3367 13.12444358190648
ONEWEB-0289             
1 49079U 21075E   25193.60872447  .00000030  00000+0  43441-4 0  9994
2 49079  87.9050  73.4897 0002111  66.5769 293.5585 13.17650073189482
ONEWEB-0290             
1 49080U 21075F   25193.36410602  .00000036  00000+0  58479-4 0  9993
2 49080  87.9049  73.4941 0002362  69.3364 290.8021 13.17647852188869
